*******************************************************************************
Ephemeris / WWW_USER Mon Mar 24 09:02:28 2025 Pasadena, USA      / Horizons    
*******************************************************************************
Target body name: (2017 UX51)                     {source: JPL#22}
Center body name: Earth (399)                     {source: DE441}
Center-site name: Mauna Kea
*******************************************************************************
Start time      : A.D. 2019-Jan-27 04:20:00.0000 UT      
Stop  time      : A.D. 2019-Jan-27 16:48:00.0000 UT      
Step-size       : 1 minutes
*******************************************************************************
Target pole/equ : undefined
Target radii    : undefined                                                    
Center geodetic : 204.5278, 19.8260847, 4.21024   {E-lon(deg),Lat(deg),Alt(km)}
Center cylindric: 204.5278, 6006.35451, 2151.0229 {E-lon(deg),Dxy(km),Dz(km)}
Center pole/equ : ITRF93                          {East-longitude positive}
Center radii    : 6378.137, 6378.137, 6356.752 km {Equator_a, b, pole_c}       
Target primary  : Sun
Vis. interferer : MOON (R_eq= 1737.400) km        {source: DE441}
Rel. light bend : Sun                             {source: DE441}
Rel. lght bnd GM: 1.3271E+11 km^3/s^2                                          
Small-body perts: Yes                             {source: SB441-N16}
Atmos refraction: NO (AIRLESS)
RA format       : HMS
Time format     : CAL 
Calendar mode   : Mixed Julian/Gregorian
RTS-only print  : NO       
EOP file        : eop.250321.p250617                                           
EOP coverage    : DATA-BASED 1962-JAN-20 TO 2025-MAR-21. PREDICTS-> 2025-JUN-16
Units conversion: 1 au= 149597870.700 km, c= 299792.458 km/s, 1 day= 86400.0 s 
Table cut-offs 1: Elevation (-90.0deg=NO ),Airmass (>38.000=NO), Daylight (YES)
Table cut-offs 2: Solar elongation (  0.0,180.0=NO ),Local Hour Angle( 0.0=NO )
Table cut-offs 3: RA/DEC angular rate (     0.0=NO )                           
*******************************************************************************
Initial IAU76/J2000 heliocentric ecliptic osculating elements (au, days, deg.):
  EPOCH=  2458433.5 ! 2018-Nov-11.00 (TDB)         Residual RMS= .12444        
   EC= .7474905367293002   QR= 7.612253692784782   TP= 2459819.8104231078      
   OM= 217.7952286585891   W=  255.0338939179157   IN= 90.52400691057457       
  Equivalent ICRF heliocentric cartesian coordinates (au, au/d):
   X= 8.209785034050050E+00  Y= 6.297741083246843E+00  Z= 1.446459094674425E+00
  VX=-3.080259200599625E-03 VY=-2.498125597102637E-05 VZ=-6.110805734701701E-03
Asteroid physical parameters (km, seconds, rotational period in hours):        
   GM= n.a.                RAD= n.a.               ROTPER= n.a.                
   H= 11.                  G= .150                 B-V= n.a.                   
                           ALBEDO= n.a.            STYP= n.a.                  
*******************************************************************************
 Date__(UT)__HR:MN     R.A._________(ICRF)_________DEC
******************************************************
$$SOE
 2019-Jan-27 10:29  m  02 12 13.403888 +03 41 46.21757
 2019-Jan-27 10:30  m  02 12 13.405759 +03 41 46.17660
 2019-Jan-27 10:31  m  02 12 13.407631 +03 41 46.13563
 2019-Jan-27 10:32  m  02 12 13.409505 +03 41 46.09466
 2019-Jan-27 10:33  m  02 12 13.411379 +03 41 46.05369
 2019-Jan-27 10:34  m  02 12 13.413255 +03 41 46.01272
 2019-Jan-27 10:35  m  02 12 13.415132 +03 41 45.97176
 2019-Jan-27 10:36  m  02 12 13.417010 +03 41 45.93079
 2019-Jan-27 10:37  m  02 12 13.418890 +03 41 45.88983
 2019-Jan-27 10:38  m  02 12 13.420771 +03 41 45.84887
 2019-Jan-27 10:39  m  02 12 13.422653 +03 41 45.80791
 2019-Jan-27 10:40  m  02 12 13.424536 +03 41 45.76695
 2019-Jan-27 10:41  m  02 12 13.426420 +03 41 45.72599
 2019-Jan-27 10:42  m  02 12 13.428306 +03 41 45.68503
 2019-Jan-27 10:43  m  02 12 13.430192 +03 41 45.64408
 2019-Jan-27 10:44  m  02 12 13.432080 +03 41 45.60312
 2019-Jan-27 10:45  m  02 12 13.433969 +03 41 45.56217
 2019-Jan-27 10:46  m  02 12 13.435860 +03 41 45.52122
 2019-Jan-27 10:47  m  02 12 13.437751 +03 41 45.48026
 2019-Jan-27 10:48  m  02 12 13.439644 +03 41 45.43931
 2019-Jan-27 10:49  m  02 12 13.441538 +03 41 45.39837
 2019-Jan-27 10:50  m  02 12 13.443433 +03 41 45.35742
 2019-Jan-27 10:51  m  02 12 13.445330 +03 41 45.31647
 2019-Jan-27 10:52  m  02 12 13.447227 +03 41 45.27553
 2019-Jan-27 10:53  m  02 12 13.449126 +03 41 45.23458
 2019-Jan-27 10:54  m  02 12 13.451026 +03 41 45.19364
 2019-Jan-27 10:55  m  02 12 13.452927 +03 41 45.15270
 2019-Jan-27 10:56  m  02 12 13.454829 +03 41 45.11176
 2019-Jan-27 10:57  m  02 12 13.456733 +03 41 45.07082
 2019-Jan-27 10:58  m  02 12 13.458638 +03 41 45.02988
 2019-Jan-27 10:59  m  02 12 13.460544 +03 41 44.98895
 2019-Jan-27 11:00  m  02 12 13.462451 +03 41 44.94801
 2019-Jan-27 11:01  m  02 12 13.464359 +03 41 44.90708
 2019-Jan-27 11:02  m  02 12 13.466269 +03 41 44.86614
 2019-Jan-27 11:03  m  02 12 13.468180 +03 41 44.82521
 2019-Jan-27 11:04  m  02 12 13.470092 +03 41 44.78428
 2019-Jan-27 11:05  m  02 12 13.472005 +03 41 44.74335
 2019-Jan-27 11:06  m  02 12 13.473919 +03 41 44.70243
 2019-Jan-27 11:07  m  02 12 13.475834 +03 41 44.66150
 2019-Jan-27 11:08  m  02 12 13.477751 +03 41 44.62058
 2019-Jan-27 11:09  m  02 12 13.479669 +03 41 44.57965
 2019-Jan-27 11:10  m  02 12 13.481588 +03 41 44.53873
 2019-Jan-27 11:11  m  02 12 13.483508 +03 41 44.49781
 2019-Jan-27 11:12  m  02 12 13.485430 +03 41 44.45689
 2019-Jan-27 11:13  m  02 12 13.487352 +03 41 44.41597
 2019-Jan-27 11:14  m  02 12 13.489276 +03 41 44.37506
 2019-Jan-27 11:15  m  02 12 13.491201 +03 41 44.33414
 2019-Jan-27 11:16  m  02 12 13.493127 +03 41 44.29323
 2019-Jan-27 11:17  m  02 12 13.495054 +03 41 44.25231
 2019-Jan-27 11:18  m  02 12 13.496983 +03 41 44.21140
 2019-Jan-27 11:19  m  02 12 13.498912 +03 41 44.17049
 2019-Jan-27 11:20  m  02 12 13.500843 +03 41 44.12958
 2019-Jan-27 11:21  m  02 12 13.502775 +03 41 44.08868
 2019-Jan-27 11:22  m  02 12 13.504708 +03 41 44.04777
 2019-Jan-27 11:23  m  02 12 13.506643 +03 41 44.00687
 2019-Jan-27 11:24  m  02 12 13.508578 +03 41 43.96596
 2019-Jan-27 11:25  m  02 12 13.510515 +03 41 43.92506
 2019-Jan-27 11:26  m  02 12 13.512452 +03 41 43.88416
 2019-Jan-27 11:27  m  02 12 13.514391 +03 41 43.84326
 2019-Jan-27 11:28  m  02 12 13.516332 +03 41 43.80237
 2019-Jan-27 11:29  m  02 12 13.518273 +03 41 43.76147
 2019-Jan-27 11:30  m  02 12 13.520215 +03 41 43.72057
 2019-Jan-27 11:31  m  02 12 13.522159 +03 41 43.67968
 2019-Jan-27 11:32  m  02 12 13.524104 +03 41 43.63879
 2019-Jan-27 11:33  m  02 12 13.526049 +03 41 43.59790
 2019-Jan-27 11:34  m  02 12 13.527997 +03 41 43.55701
 2019-Jan-27 11:35  m  02 12 13.529945 +03 41 43.51612
 2019-Jan-27 11:36  m  02 12 13.531894 +03 41 43.47524
 2019-Jan-27 11:37  m  02 12 13.533845 +03 41 43.43435
 2019-Jan-27 11:38  m  02 12 13.535796 +03 41 43.39347
 2019-Jan-27 11:39  m  02 12 13.537749 +03 41 43.35259
 2019-Jan-27 11:40  m  02 12 13.539703 +03 41 43.31170
 2019-Jan-27 11:41  m  02 12 13.541658 +03 41 43.27083
 2019-Jan-27 11:42  m  02 12 13.543614 +03 41 43.22995
 2019-Jan-27 11:43  m  02 12 13.545571 +03 41 43.18907
 2019-Jan-27 11:44  m  02 12 13.547530 +03 41 43.14820
 2019-Jan-27 11:45  m  02 12 13.549489 +03 41 43.10732
 2019-Jan-27 11:46  m  02 12 13.551450 +03 41 43.06645
 2019-Jan-27 11:47  m  02 12 13.553412 +03 41 43.02558
 2019-Jan-27 11:48  m  02 12 13.555375 +03 41 42.98471
 2019-Jan-27 11:49  m  02 12 13.557339 +03 41 42.94385
 2019-Jan-27 11:50  m  02 12 13.559304 +03 41 42.90298
 2019-Jan-27 11:51  m  02 12 13.561270 +03 41 42.86212
 2019-Jan-27 11:52  m  02 12 13.563238 +03 41 42.82125
 2019-Jan-27 11:53  m  02 12 13.565206 +03 41 42.78039
 2019-Jan-27 11:54  m  02 12 13.567176 +03 41 42.73953
 2019-Jan-27 11:55  m  02 12 13.569147 +03 41 42.69867
 2019-Jan-27 11:56  m  02 12 13.571119 +03 41 42.65782
 2019-Jan-27 11:57  m  02 12 13.573092 +03 41 42.61696
 2019-Jan-27 11:58  m  02 12 13.575066 +03 41 42.57611
 2019-Jan-27 11:59  m  02 12 13.577041 +03 41 42.53526
 2019-Jan-27 12:00  m  02 12 13.579017 +03 41 42.49440
 2019-Jan-27 12:01  m  02 12 13.580995 +03 41 42.45356
 2019-Jan-27 12:02  m  02 12 13.582973 +03 41 42.41271
 2019-Jan-27 12:03  m  02 12 13.584953 +03 41 42.37186
 2019-Jan-27 12:04  m  02 12 13.586934 +03 41 42.33102
 2019-Jan-27 12:05  m  02 12 13.588915 +03 41 42.29017
 2019-Jan-27 12:06  m  02 12 13.590898 +03 41 42.24933
 2019-Jan-27 12:07  m  02 12 13.592882 +03 41 42.20849
 2019-Jan-27 12:08  m  02 12 13.594867 +03 41 42.16765
 2019-Jan-27 12:09  m  02 12 13.596853 +03 41 42.12682
 2019-Jan-27 12:10  m  02 12 13.598840 +03 41 42.08598
 2019-Jan-27 12:11  m  02 12 13.600829 +03 41 42.04515
 2019-Jan-27 12:12  m  02 12 13.602818 +03 41 42.00432
 2019-Jan-27 12:13  m  02 12 13.604809 +03 41 41.96348
 2019-Jan-27 12:14  m  02 12 13.606800 +03 41 41.92266
 2019-Jan-27 12:15  m  02 12 13.608793 +03 41 41.88183
 2019-Jan-27 12:16  m  02 12 13.610786 +03 41 41.84100
 2019-Jan-27 12:17  m  02 12 13.612781 +03 41 41.80018
 2019-Jan-27 12:18  m  02 12 13.614777 +03 41 41.75936
 2019-Jan-27 12:19  m  02 12 13.616773 +03 41 41.71853
 2019-Jan-27 12:20  m  02 12 13.618771 +03 41 41.67771
 2019-Jan-27 12:21  m  02 12 13.620770 +03 41 41.63690
 2019-Jan-27 12:22  m  02 12 13.622770 +03 41 41.59608
 2019-Jan-27 12:23  m  02 12 13.624771 +03 41 41.55527
 2019-Jan-27 12:24  m  02 12 13.626773 +03 41 41.51445
 2019-Jan-27 12:25  m  02 12 13.628776 +03 41 41.47364
 2019-Jan-27 12:26  m  02 12 13.630781 +03 41 41.43283
 2019-Jan-27 12:27  m  02 12 13.632786 +03 41 41.39202
 2019-Jan-27 12:28  m  02 12 13.634792 +03 41 41.35122
 2019-Jan-27 12:29  m  02 12 13.636799 +03 41 41.31041
 2019-Jan-27 12:30  m  02 12 13.638808 +03 41 41.26961
 2019-Jan-27 12:31  m  02 12 13.640817 +03 41 41.22881
